[{"OBJECT_NAME":"STARLINK-3604","OBJECT_ID":"2022-017AZ","EPOCH":"2026-03-09T21:32:47.485248","MEAN_MOTION":15.08834424,"ECCENTRICITY":0.00013283,"INCLINATION":53.2193,"RA_OF_ASC_NODE":328.1913,"ARG_OF_PERICENTER":49.6075,"MEAN_ANOMALY":310.5033,"EPHEMERIS_TYPE":0,"CLASSIFICATION_TYPE":"U","NORAD_CAT_ID":51815,"ELEMENT_SET_NO":999,"REV_AT_EPOCH":22411,"BSTAR":5.7389416e-5,"MEAN_MOTION_DOT":6.25e-6,"MEAN_MOTION_DDOT":0},{"OBJECT_NAME":"COSMOS 2535 DEB","OBJECT_ID":"2019-039H","EPOCH":"2026-03-09T01:37:49.505376","MEAN_MOTION":15.12536261,"ECCENTRICITY":0.00199509,"INCLINATION":97.5365,"RA_OF_ASC_NODE":108.6978,"ARG_OF_PERICENTER":50.248,"MEAN_ANOMALY":310.0505,"EPHEMERIS_TYPE":0,"CLASSIFICATION_TYPE":"U","NORAD_CAT_ID":44631,"ELEMENT_SET_NO":999,"REV_AT_EPOCH":34980,"BSTAR":0.00071319108,"MEAN_MOTION_DOT":0.00012434,"MEAN_MOTION_DDOT":0}]
